STARLETTE               
1 07646U 75010A   25008.17303809 -.00000137  00000+0  60557-5 0  9991
2 07646  49.8247  16.9083 0205637 128.6735 233.2753 13.82338729521909
LAGEOS 1                
1 08820U 76039A   25007.23315350  .00000025  00000+0  00000+0 0  9994
2 08820 109.8536 359.1775 0044183  54.4700 285.9521  6.38664861879542
AJISAI (EGS)            
1 16908U 86061A   25007.85282414 -.00000088  00000+0  65087-4 0  9999
2 16908  50.0114 322.7808 0011265 283.6590 172.3700 12.44509705414977
COSMOS 1989 (ETALON 1)  
1 19751U 89001C   25008.22083351 -.00000035  00000+0  00000+0 0  9997
2 19751  64.6511  90.1910 0023704 216.4913 110.5283  2.13155990280241
COSMOS 2024 (ETALON 2)  
1 20026U 89039C   25007.33566010 -.00000057  00000+0  00000+0 0  9998
2 20026  65.2406 328.5933 0019864 216.4460 218.4742  2.13204267277291
LAGEOS 2                
1 22195U 92070B   25006.52167571 -.00000009  00000+0  00000+0 0  9992
2 22195  52.6427 239.5035 0137153 316.7356 236.2227  6.47294103761526
STELLA                  
1 22824U 93061B   25007.83610053 -.00000014  00000+0  13002-4 0  9992
2 22824  98.8506  62.9999 0005840 333.3738  86.9628 14.27446374629825
LARETS                  
1 27944U 03042F   25008.48119404  .00000248  00000+0  57149-4 0  9994
2 27944  98.3415 156.8676 0011295 230.7950 129.2249 14.63681125136681
LARES                   
1 38077U 12006A   25007.57547115 -.00000044  00000+0 -34393-4 0  9998
2 38077  69.4901 110.0423 0009204 194.1420 165.9350 12.54931729591123
LARES-2                 
1 53105U 22080A   25007.58293761  .00000004  00000+0  00000+0 0  9993
2 53105  70.1346 125.5991 0004843  91.0969 269.0120  6.38965102 58083
